[{"OBJECT_ID":"2007-003A","OBJECT_NAME":"BEIDOU 1D","NORAD_CAT_ID":"30323","OBJECT_TYPE":"PAYLOAD","PERIOD":"1452.271","INCLINATION":"1.7254","APOGEE":"36364.537","PERIGEE":"35840.673","ECCENTRICITY":"0.0061659","MEAN_MOTION":"0.99155006","TLE_LINE1":"1 30323U 07003A   16237.42683444 -.00000268 +00000-0 +00000-0 0  9992","TLE_LINE2":"2 30323 001.7254 088.9497 0061659 176.3926 184.0751 00.99155006035175","LAUNCH_DATE":"2007-02-02","LAUNCH_SITE":"Xichang Space Center, China","OWNER":"PEOPLES REPUBLIC OF CHINA","ORBIT_TYPE":"Geosynchronous","OPERATIONAL_STATUS":"Nonoperational","satInfo":{"lng":2.5945143212289783,"lat":3.496763455028836,"elevation":-5.03377678405089,"azimuth":312.405485678771,"range":42793.807485055775,"height":36330.053886868685,"velocity":3.046860928858629},"x":12,"y":-286,"dx":3.043737617337583,"dy":0.1379232997335862},{"OBJECT_ID":"2007-036D","OBJECT_NAME":"ARIANE 5 R/B","NORAD_CAT_ID":"32021","OBJECT_TYPE":"ROCKET BODY","PERIOD":"608.209","INCLINATION":"1.7902","APOGEE":"34508.210","PERIGEE":"293.744","ECCENTRICITY":"0.7194227","MEAN_MOTION":"2.36760528","TLE_LINE1":"1 32021U 07036D   16238.94776098 +.00000334 +00000-0 +26641-3 0  9996","TLE_LINE2":"2 32021 001.7902 212.2733 7194227 052.7544 353.1602 02.36760528076460","LAUNCH_DATE":"2007-08-14","LAUNCH_SITE":"FRENCH GUIANA","OWNER":"FRANCE","ORBIT_TYPE":"Highly Elliptical Orbit","OPERATIONAL_STATUS":"N/A, derelict rocket body","satInfo":{"lng":85.9417532086952,"lat":0.5589173637015338,"elevation":-8.312264929107371,"azimuth":229.05824679130475,"range":41223.61557537199,"height":34414.35776940135,"velocity":1.6526570563482408},"x":256,"y":-19,"dx":0.11695946442109802,"dy":1.6485132178966482},{"OBJECT_ID":"2007-044A","OBJECT_NAME":"OPTUS D2","NORAD_CAT_ID":"32252","OBJECT_TYPE":"PAYLOAD","PERIOD":"1436.184","INCLINATION":"0.0188","APOGEE":"35803.486","PERIGEE":"35773.143","ECCENTRICITY":"0.0003598","MEAN_MOTION":"1.00265656","TLE_LINE1":"1 32252U 07044A   16237.83626765  .00000000  00000-0  10000-3 0  9995","TLE_LINE2":"2 32252   0.0188   6.9762 0003598 151.0649 268.5001  1.00265656 32518","LAUNCH_DATE":"2007-10-05","LAUNCH_SITE":"FRENCH GUIANA","OWNER":"AUSTRALIA","ORBIT_TYPE":"Geosynchronous","OPERATIONAL_STATUS":"Operational","satInfo":{"lng":-147.86499045508296,"lat":-0.012057272658778964,"elevation":-8.577819098541745,"azimuth":102.86499045508296,"range":42681.09669966695,"height":35825.53827386443,"velocity":3.072768312189044},"x":-143,"y":239,"dx":-2.6020111784030067,"dy":-1.6344549329543792},{"OBJECT_ID":"2007-056A","OBJECT_NAME":"STAR ONE C1","NORAD_CAT_ID":"32293","OBJECT_TYPE":"PAYLOAD","PERIOD":"1436.102","INCLINATION":"0.0208","APOGEE":"35798.443","PERIGEE":"35774.965","ECCENTRICITY":"0.0002784","MEAN_MOTION":"1.00271402","TLE_LINE1":"1 32293U 07056A   16238.25293134 -.00000302 +00000-0 +00000-0 0  9992","TLE_LINE2":"2 32293 000.0208 234.1530 0002784 298.4686 187.3771 01.00271402015853","LAUNCH_DATE":"2007-11-14","LAUNCH_SITE":"FRENCH GUIANA","OWNER":"BRAZIL","ORBIT_TYPE":"Geosynchronous","OPERATIONAL_STATUS":"Operational","satInfo":{"lng":-78.62431137028331,"lat":-0.4015425629398754,"elevation":-8.96126222785651,"azimuth":33.6243113702833,"range":42708.001899265924,"height":35809.600903808154,"velocity":3.073512731097257},"x":-263,"y":-56,"dx":0.6062238935965949,"dy":-3.013133435321029},{"OBJECT_ID":"2008-007A","OBJECT_NAME":"WINDS (KIZUNA)","NORAD_CAT_ID":"32500","OBJECT_TYPE":"PAYLOAD","PERIOD":"1436.102","INCLINATION":"0.211","APOGEE":"35796.752","PERIGEE":"35776.664","ECCENTRICITY":"0.0002382","MEAN_MOTION":"1.00271387","TLE_LINE1":"1 32500U 08007A   16238.92132579 -.00000286 +00000-0 +00000-0 0  9990","TLE_LINE2":"2 32500 000.2110 093.0578 0002382 032.5779 323.6414 01.00271387030977","LAUNCH_DATE":"2008-02-23","LAUNCH_SITE":"TANEGASHIMA SPACE CENTER","OWNER":"JAPAN","ORBIT_TYPE":"Geosynchronous","OPERATIONAL_STATUS":"Operational","satInfo":{"lng":41.90643945697838,"lat":2.5316947048217635,"elevation":-6.100501930779702,"azimuth":273.0935605430216,"range":42326.34987317848,"height":35749.59691460093,"velocity":3.0763763908028814},"x":178,"y":-210,"dx":2.289551548589624,"dy":2.054761641709378},{"OBJECT_ID":"2008-018C","OBJECT_NAME":"ARIANE 5 R/B","NORAD_CAT_ID":"32769","OBJECT_TYPE":"ROCKET BODY","PERIOD":"570.054","INCLINATION":"1.5653","APOGEE":"32533.685","PERIGEE":"257.876","ECCENTRICITY":"0.7086135","MEAN_MOTION":"2.52607471","TLE_LINE1":"1 32769U 08018C   16238.76622179 +.00000898 +00000-0 +28433-3 0  9992","TLE_LINE2":"2 32769 001.5653 096.4051 7086135 347.2024 001.6388 02.52607471072881","LAUNCH_DATE":"2008-04-18","LAUNCH_SITE":"FRENCH GUIANA","OWNER":"FRANCE","ORBIT_TYPE":"Highly Elliptical Orbit","OPERATIONAL_STATUS":"N/A, derelict rocket body","satInfo":{"lng":-31.74512054751627,"lat":-0.3299550251072457,"elevation":-10.876338547610064,"azimuth":346.74512054751625,"range":34730.48400591842,"height":27729.038440743578,"velocity":2.4005599284892924},"x":-109,"y":-186,"dx":2.0414290469943217,"dy":-1.2630342102874226},{"OBJECT_ID":"2008-022A","OBJECT_NAME":"AMOS 3","NORAD_CAT_ID":"32794","OBJECT_TYPE":"PAYLOAD","PERIOD":"1436.077","INCLINATION":"0.0446","APOGEE":"35791.158","PERIGEE":"35781.292","ECCENTRICITY":"0.000117","MEAN_MOTION":"1.00273111","TLE_LINE1":"1 32794U 08022A   16239.13452203 -.00000062  00000-0  00000+0 0  9996","TLE_LINE2":"2 32794   0.0446 250.0947 0001170 275.1736 213.9734  1.00273111 30534","LAUNCH_DATE":"2008-04-28","LAUNCH_SITE":"TYURATAM MISSILE AND SPACE COMPLEX","OWNER":"ISRAEL","ORBIT_TYPE":"Geosynchronous","OPERATIONAL_STATUS":"Operational","satInfo":{"lng":31.590268481929158,"lat":-1.9993156456202805,"elevation":-10.518200094760111,"azimuth":283.4097315180708,"range":42878.10056163538,"height":35805.13493501477,"velocity":3.0741701558194015},"x":140,"y":-240,"dx":2.61862707738855,"dy":1.610377091397597},{"OBJECT_ID":"2008-024B","OBJECT_NAME":"BLOCK DM-SL R/B","NORAD_CAT_ID":"32952","OBJECT_TYPE":"ROCKET BODY","PERIOD":"670.960","INCLINATION":"0.3659","APOGEE":"35582.766","PERIGEE":"2436.516","ECCENTRICITY":"0.6527994","MEAN_MOTION":"2.14617811","TLE_LINE1":"1 32952U 08024B   16239.28443237 -.00000249  00000-0  00000+0 0  9994","TLE_LINE2":"2 32952   0.3659 120.0969 6527994 221.2396   1.4804  2.14617811 64817","LAUNCH_DATE":"2008-05-21","LAUNCH_SITE":"SEA LAUNCH","OWNER":"SEA LAUNCH DEMO","ORBIT_TYPE":"Highly Elliptical Orbit","OPERATIONAL_STATUS":"N/A, derelict rocket body","satInfo":{"lng":-124.21836042520832,"lat":0.5839204275678567,"elevation":-19.144878355789047,"azimuth":79.21836042520829,"range":18832.41062357737,"height":11413.61842609287,"velocity":5.3949033093175975},"x":-71,"y":50,"dx":-3.033815173217654,"dy":-4.461047770607293},{"OBJECT_ID":"2008-030C","OBJECT_NAME":"ARIANE 5 R/B","NORAD_CAT_ID":"33057","OBJECT_TYPE":"ROCKET BODY","PERIOD":"594.904","INCLINATION":"1.3242","APOGEE":"33824.189","PERIGEE":"281.625","ECCENTRICITY":"0.7157719","MEAN_MOTION":"2.42055716","TLE_LINE1":"1 33057U 08030C   16238.68163882 +.00000385 +00000-0 +19600-3 0  9996","TLE_LINE2":"2 33057 001.3242 222.5683 7157719 210.1247 073.8243 02.42055716070279","LAUNCH_DATE":"2008-06-12","LAUNCH_SITE":"FRENCH GUIANA","OWNER":"FRANCE","ORBIT_TYPE":"Highly Elliptical Orbit","OPERATIONAL_STATUS":"N/A, derelict rocket body","satInfo":{"lng":-42.20576021366204,"lat":0.537137855237771,"elevation":-15.769778024738118,"azimuth":357.205760213662,"range":22641.161258720655,"height":15411.800107451447,"velocity":4.418777130816101},"x":-78,"y":-90,"dx":3.2731519865052463,"dy":-2.9685126587333484},{"OBJECT_ID":"2008-034A","OBJECT_NAME":"INTELSAT 25(PROTOSTAR 1)","NORAD_CAT_ID":"33153","OBJECT_TYPE":"PAYLOAD","PERIOD":"1436.084","INCLINATION":"0.0551","APOGEE":"35797.709","PERIGEE":"35775.008","ECCENTRICITY":"0.0002692","MEAN_MOTION":"1.00272634","TLE_LINE1":"1 33153U 08034A   16238.16019353 -.00000250  00000-0  00000+0 0  9995","TLE_LINE2":"2 33153   0.0551 280.9420 0002692 232.7902 206.2761  1.00272634 29704","LAUNCH_DATE":"2008-07-07","LAUNCH_SITE":"FRENCH GUIANA","OWNER":"INTERNATIONAL TELECOMMUNICATIONS SATELLITE ORGANIZATION (INTELSAT)","ORBIT_TYPE":"Geosynchronous","OPERATIONAL_STATUS":"Operational","satInfo":{"lng":-46.90097285719804,"lat":0.09268768530640363,"elevation":-8.486253359803715,"azimuth":1.9009728571980198,"range":42616.48680889135,"height":35771.809688705325,"velocity":3.07521711989248},"x":-195,"y":-193,"dx":2.1011770800590783,"dy":-2.2454432107524354},{"OBJECT_ID":"2008-034D","OBJECT_NAME":"ARIANE 5 R/B","NORAD_CAT_ID":"33156","OBJECT_TYPE":"ROCKET BODY","PERIOD":"605.312","INCLINATION":"1.8612","APOGEE":"34352.692","PERIGEE":"298.124","ECCENTRICITY":"0.7183434","MEAN_MOTION":"2.37893649","TLE_LINE1":"1 33156U 08034D   16238.44348837 +.00000213 +00000-0 +14209-3 0  9999","TLE_LINE2":"2 33156 001.8612 276.0135 7183434 149.1443 287.2222 02.37893649069054","LAUNCH_DATE":"2008-07-07","LAUNCH_SITE":"FRENCH GUIANA","OWNER":"FRANCE","ORBIT_TYPE":"Highly Elliptical Orbit","OPERATIONAL_STATUS":"N/A, derelict rocket body","satInfo":{"lng":-105.09153135785924,"lat":-1.291498735601047,"elevation":-10.189329550772214,"azimuth":60.09153135785922,"range":41083.74425163621,"height":34067.921752641385,"velocity":1.694023831333916},"x":-246,"y":70,"dx":-0.44105909981447117,"dy":-1.6355988541198263}]